satname,norad_id,inclination_deg,eccentricity,mean_motion_rev_per_day,perigee_km,apogee_km,l1,l2
STARLINK-1274,45387,53.0338,0.0005311,15.33034664,463.1289909380357,470.39964511804374,1 45387U 20019AD  25337.81650074  .00088025  00000+0  26988-2 0  9997,2 45387  53.0338 196.4372 0005311  83.3876 276.7729 15.33034664315844
STARLINK-1280,45388,53.053,0.0010126,15.45557304,422.8473794154297,436.6346940153853,1 45388U 20019AE  25337.10056815  .00103509  00000+0  20970-2 0  9993,2 45388  53.0530 229.3326 0010126 106.4003 253.8117 15.45557304315316
STARLINK-1283,45389,53.0509,0.0010148,15.34985877,454.02212607141246,467.9027623033362,1 45389U 20019AF  25337.78860786  .00086400  00000+0  24885-2 0  9997,2 45389  53.0509 207.4588 0010148 116.1925 244.0121 15.34985877315691
STARLINK-1284,45390,53.0539,0.0001365,15.06405904,546.2481554794967,548.1387706959204,1 45390U 20019AG  25337.41716590  .00004059  00000+0  29118-3 0  9997,2 45390  53.0539 218.8061 0001365  85.5779 274.5366 15.06405904315499
STARLINK-1297,45395,53.0543,0.0001408,15.06398423,546.2413014628801,548.1914809778482,1 45395U 20019AM  25337.38768072  .00000995  00000+0  85676-4 0  9997,2 45395  53.0543 218.9350 0001408  91.6163 268.4987 15.06398423314671
STARLINK-1307,45397,53.0542,0.0001479,15.0639829,546.1925390201013,548.2410586738006,1 45397U 20019AP  25337.38030023 -.00000356  00000+0 -49731-5 0  9993,2 45397  53.0542 218.9683 0001479  92.6606 267.4553 15.06398290315314
STARLINK-1255,45399,53.0473,0.0007854,15.34898141,455.8514272264956,466.59469400971557,1 45399U 20019AR  25337.34125705  .00083112  00000+0  24034-2 0  9998,2 45399  53.0473 200.6276 0007854 122.0568 238.1198 15.34898141315550
STARLINK-1260,45404,53.0527,0.0001606,15.06398182,546.104917978787,548.3293417252953,1 45404U 20019AW  25337.38122237  .00000670  00000+0  63912-4 0  9994,2 45404  53.0527 208.9613 0001606  86.0709 274.0463 15.06398182315348
STARLINK-1263,45405,53.0539,0.0001644,15.0639275,546.0952472772633,548.3723091891461,1 45405U 20019AX  25337.36649653  .00006859  00000+0  47903-3 0  9995,2 45405  53.0539 209.0328 0001644 104.9612 255.1560 15.06392750315345
STARLINK-1265,45406,53.0535,0.00015,15.06401576,546.1679261703148,548.2455292886334,1 45406U 20019AY  25337.37385443  .00003249  00000+0  23693-3 0  9991,2 45406  53.0535 208.9972 0001500 100.2859 259.8299 15.06401576315345
STARLINK-1278,45408,53.0522,0.0009303,15.38069146,445.4655419834162,458.17335895516044,1 45408U 20019BA  25337.41870682  .00082217  00000+0  21466-2 0  9999,2 45408  53.0522 229.8555 0009303 100.9658 259.2392 15.38069146315060
STARLINK-1296,45412,53.0544,0.0001463,15.06393986,546.2168088527806,548.2431712340676,1 45412U 20019BE  25337.04580441  .00000514  00000+0  53426-4 0  9997,2 45412  53.0544 210.4673 0001463  92.7453 267.3704 15.06393986315295
STARLINK-1298,45413,53.0445,0.0008479,15.58801218,385.38576059764455,396.8650758064314,1 45413U 20019BF  25337.83335647  .00160318  00000+0  20017-2 0  9998,2 45413  53.0445 171.4265 0008479  78.2066 147.9904 15.58801218  5900
STARLINK-1309,45414,53.054,0.0001582,15.06387445,546.1544412429521,548.3456337016087,1 45414U 20019BG  25336.92785239  .00002117  00000+0  16102-3 0  9997,2 45414  53.0540 211.0014 0001582  94.3622 265.7547 15.06387445315264
STARLINK-1316,45415,53.0547,0.0001404,15.06398704,546.2432104992558,548.1878494896782,1 45415U 20019BH  25337.35173473  .00000257  00000+0  36148-4 0  9993,2 45415  53.0547 209.0960 0001404  95.6934 264.4215 15.06398704315361
STARLINK-1318,45416,53.0473,0.0004329,15.65313174,369.41594502089174,375.26050647134343,1 45416U 20019BJ  25337.68989009  .00117239  00000+0  11458-2 0  9994,2 45416  53.0473 161.9176 0004329 145.1356 214.9942 15.65313174316049
STARLINK-1286,45417,53.0534,0.0005738,15.395653,443.4773296299836,451.3103087981135,1 45417U 20019BK  25337.41274610  .00063340  00000+0  15824-2 0  9995,2 45417  53.0534 229.9249 0005738 104.5300 255.6340 15.39565300315333
STARLINK-1308,45419,53.0535,0.0001701,15.06381174,546.0912459133424,548.4472691221499,1 45419U 20019BM  25337.12044733 -.00000193  00000+0  59692-5 0  9998,2 45419  53.0535 240.1322 0001701  90.8019 269.3165 15.06381174314912
STARLINK-1329,45531,53.0538,0.0001423,15.06411323,546.1913826299251,548.162326953,1 45531U 20025A   25337.81891007  .00002528  00000+0  18846-3 0  9997,2 45531  53.0538 177.0002 0001423  90.1513 269.9639 15.06411323310644
STARLINK-1338,45532,53.0527,0.0001475,15.06400845,546.187479605891,548.2304566664916,1 45532U 20025B   25337.76363556  .00001260  00000+0  10349-3 0  9997,2 45532  53.0527 177.2448 0001475  93.5164 266.5993 15.06400845310637
STARLINK-1350,45535,53.0737,0.0001877,15.33319214,464.63282168026217,467.20207972105527,1 45535U 20025E   25337.67298213  .00017754  00000+0  55380-3 0  9996,2 45535  53.0737 123.1383 0001877 102.7620 257.3591 15.33319214311415
STARLINK-1362,45538,53.0529,0.0001463,15.06413803,546.1560817493273,548.1824263592634,1 45538U 20025H   25337.72948487  .00004716  00000+0  33518-3 0  9993,2 45538  53.0529 177.1182 0001463  89.3577 270.7579 15.06413803310632
STARLINK-1368,45540,53.0537,0.0001562,15.06404452,546.1161759196402,548.2796505465349,1 45540U 20025K   25337.73414653  .00001540  00000+0  12223-3 0  9992,2 45540  53.0537 177.3792 0001562  88.4258 271.6909 15.06404452310625
STARLINK-1371,45542,53.0534,0.0001777,15.06425121,545.903946003883,548.3651875187097,1 45542U 20025M   25337.77098105  .00003327  00000+0  24197-3 0  9996,2 45542  53.0534 177.2103 0001777  94.4114 265.7078 15.06425121310633
STARLINK-1372,45543,53.0541,0.0001514,15.06400306,546.1621224628261,548.2591177221902,1 45543U 20025N   25337.74152176  .00000211  00000+0  33077-4 0  9990,2 45543  53.0541 177.3475 0001514  93.7329 266.3833 15.06400306309726
STARLINK-1373,45544,53.054,0.0001458,15.06404834,546.1870288044693,548.2064561237721,1 45544U 20025P   25337.82629691  .00001533  00000+0  12177-3 0  9996,2 45544  53.0540 176.9648 0001458  88.4796 271.6360 15.06404834310646
STARLINK-1294,45551,53.0448,0.0002857,15.65974721,368.5088626380957,372.3649977818177,1 45551U 20025W   25337.83335647  .00087282  00000+0  83537-3 0  9993,2 45551  53.0448  96.6442 0002857 151.9194 321.1917 15.65974721  5982
STARLINK-1325,45554,53.0508,0.0007233,15.74623806,340.8385455836051,350.56525093382515,1 45554U 20025Z   25337.83335647  .00206260  00000+0  13510-2 0  9998,2 45554  53.0508  88.4434 0007233 340.5760 164.5785 15.74623806  5987
STARLINK-1327,45555,53.0534,0.0001522,15.06408839,546.130433881388,548.2385017361903,1 45555U 20025AA  25337.79863902  .00001905  00000+0  14671-3 0  9993,2 45555  53.0534 157.0887 0001522  89.8002 270.3161 15.06408839310917
STARLINK-1356,45564,53.0547,0.0001396,15.06406337,546.2253600666709,548.1589119614464,1 45564U 20025AK  25337.80233102  .00001437  00000+0  11535-3 0  9994,2 45564  53.0547 157.0715 0001396  90.4051 269.7098 15.06406337310914
STARLINK-1357,45565,53.0582,0.0007581,15.37852336,447.2830941948214,457.6396474446583,1 45565U 20025AL  25337.83335647  .00158067  00000+0  41075-2 0  9998,2 45565  53.0582 135.2875 0007581 129.7994  95.1758 15.37852336  5635
STARLINK-1361,45567,53.0551,0.0001662,15.06397894,546.0670185293948,548.3690065355604,1 45567U 20025AN  25337.82076512  .00000705  00000+0  66253-4 0  9994,2 45567  53.0551 156.9875 0001662  93.3326 266.7853 15.06397894310924
STARLINK-1363,45568,53.0509,0.0006553,15.47678738,419.0613606358138,427.9756103150785,1 45568U 20025AP  25337.83335647  .00184807  00000+0  34412-2 0  9999,2 45568  53.0509 145.6413 0006553 186.5061 293.6143 15.47678738  5821
STARLINK-1366,45569,53.0499,0.0005216,15.44739888,428.59022524735065,435.6947087873432,1 45569U 20025AQ  25337.83335647  .00157931  00000+0  32665-2 0  9996,2 45569  53.0499 145.5508 0005216 195.6715 269.2466 15.44739888  5925
STARLINK-1376,45570,53.0539,0.0001426,15.06397409,546.2319431547312,548.2070548282427,1 45570U 20025AR  25337.81708140 -.00000437  00000+0 -10428-4 0  9993,2 45570  53.0539 157.0088 0001426  93.0618 267.0534 15.06397409310912
STARLINK-1320,45572,53.0543,0.0005939,15.47513394,419.9631676463341,428.04274948912007,1 45572U 20025AT  25337.83335647  .00144462  00000+0  27216-2 0  9991,2 45572  53.0543  91.2265 0005939 107.8464 204.4012 15.47513394  5938
STARLINK-1321,45573,53.0545,0.000134,15.06395282,546.2980193220947,548.1540166109098,1 45573U 20025AU  25337.73690352  .00001840  00000+0  14238-3 0  9991,2 45573  53.0545 147.3685 0001340  89.6337 270.4806 15.06395282310749
STARLINK-1328,45576,53.0446,0.0003817,15.82085774,321.9846686594183,327.1014946337473,1 45576U 20025AX  25337.83335647  .00245645  00000+0  11464-2 0  9998,2 45576  53.0446 106.9221 0003817 173.9522 147.5169 15.82085774  6017
STARLINK-1331,45578,53.053,0.000117,15.06394069,546.4194677506248,548.0400035667681,1 45578U 20025AZ  25337.78114472  .00004739  00000+0  33686-3 0  9993,2 45578  53.0530 147.1681 0001170  86.7678 273.3444 15.06394069311067
STARLINK-1333,45580,53.0538,0.0001319,15.06411149,546.2639391019866,548.0908370375591,1 45580U 20025BB  25337.78758222  .00001384  00000+0  11173-3 0  9993,2 45580  53.0538 157.1370 0001319  90.7583 269.3557 15.06411149310911
STARLINK-1335,45581,53.0558,0.000135,15.06400321,546.2756521971787,548.1454960421906,1 45581U 20025BC  25337.72585611  .00000509  00000+0  53037-4 0  9992,2 45581  53.0558 147.4191 0001350  91.3383 268.7760 15.06400321311041
STARLINK-1337,45582,53.0539,0.0001429,15.06407057,546.2003001159073,548.1795585523096,1 45582U 20025BD  25337.74796102  .00001610  00000+0  12690-3 0  9997,2 45582  53.0539 147.3195 0001429  92.1306 267.9847 15.06407057311045
STARLINK-1347,45586,53.0518,0.0007115,15.3673124,450.9207303927906,460.6453986445995,1 45586U 20025BH  25337.83335647  .00151942  00000+0  40981-2 0  9991,2 45586  53.0518 125.9533 0007115 130.7980   0.3074 15.36731240  5801
